SL-8 R/B                
1 11574U 79089B   26072.42155193  .00000314  00000+0  10293-3 0  9993
2 11574  74.0667  84.1345 0017114 256.4414 103.4836 14.42353288436643
SL-14 R/B               
1 11672U 80005B   26072.62027333  .00000659  00000+0  64045-4 0  9995
2 11672  82.5137 303.5078 0016496 145.6854 214.5434 14.90935453477071
SL-8 R/B                
1 12139U 81003B   26072.57681267  .00022075  00000+0  56394-3 0  9992
2 12139  82.9385 286.4298 0261810 165.1006 195.8138 15.11134202315261
SL-3 R/B                
1 12465U 81046B   26072.54804227  .00013651  00000+0  31630-3 0  9997
2 12465  81.2297 285.1104 0019237   9.0136 351.1448 15.42099832439028
SL-3 R/B                
1 12904U 81103B   26072.58691072  .00007467  00000+0  33081-3 0  9995
2 12904  81.1587 208.8600 0012342 272.7713  87.2105 15.21429807973824
SL-3 R/B                
1 13068U 82013B   26072.59336384  .00005144  00000+0  22225-3 0  9999
2 13068  81.1759 156.1960 0022856 164.2953 195.8993 15.22058759404941
SL-3 R/B                
1 13154U 82039B   26072.56622573  .00003300  00000+0  19915-3 0  9992
2 13154  81.1577 211.4926 0029560 311.7992  48.0708 15.10107188382220
SL-3 R/B                
1 13403U 82079B   26072.60418331  .00008444  00000+0  33570-3 0  9990
2 13403  81.1478 188.4554 0025232 151.6305 208.6308 15.24863153378296
SL-14 R/B               
1 13553U 82092B   26072.63313476  .00000528  00000+0  56604-4 0  9997
2 13553  82.5689 137.7115 0018839 289.4979 230.7637 14.86670719329516
SL-3 R/B                
1 13819U 83010B   26072.25508695  .00017425  00000+0  34825-3 0  9994
2 13819  81.1059 357.8766 0017762  39.4433 320.8101 15.46493922358498
SL-3 R/B                
1 14208U 83075B   26072.58960985  .00012774  00000+0  33580-3 0  9997
2 14208  97.6145  77.3147 0020502 211.0987 148.9045 15.38519634330759
COSMOS 1536             
1 14699U 84013A   26072.33150443  .00005829  00000+0  23982-3 0  9995
2 14699  82.5430 104.2299 0012492 269.0469  90.9336 15.23875777273176
SL-14 R/B               
1 14820U 84027B   26072.46403325  .00000619  00000+0  67951-4 0  9997
2 14820  82.5391 241.4718 0017078 324.9001  35.1089 14.85980961248195
SL-8 R/B                
1 15483U 85006B   26072.47859072  .00000394  00000+0  13926-3 0  9998
2 15483  74.0432 254.1757 0018290 171.0261 217.7627 14.37786143154570
SL-12 R/B(2)            
1 15772U 85042D   26072.44243043  .00000181  00000+0  10268-3 0  9991
2 15772  71.1063  79.7994 0033085 121.9535  41.1642 14.21983557114922
SL-14 R/B               
1 15945U 85069B   26072.31303909  .00000644  00000+0  69922-4 0  9992
2 15945  82.5291  21.5263 0018803 175.6166 184.5220 14.86437913173373
SL-16 R/B               
1 16182U 85097B   26072.60762038 -.00000064  00000+0 -79388-5 0  9997
2 16182  71.0020 132.3065 0009802 254.8967 266.9757 14.16598191 87787
